IRIDIUM 116             
1 43072U 17083C   25106.16188927 -.00000033  00000+0 -19017-4 0  9990
2 43072  86.3969 140.5379 0002274  99.8704 260.2748 14.34217372382961
IRIDIUM 130             
1 43073U 17083D   25105.85110010 -.00000006  00000+0 -91831-5 0  9999
2 43073  86.3978 140.9012 0001977 102.9348 257.2069 14.34217909382866
IRIDIUM 151             
1 43074U 17083E   25105.82572817  .00000291  00000+0  96697-4 0  9992
2 43074  86.3967 140.7266 0002359  99.2422 260.9040 14.34216935382880
IRIDIUM 134             
1 43075U 17083F   25106.14286108 -.00000035  00000+0 -19486-4 0  9993
2 43075  86.3970 140.5961 0001951  99.5923 260.5493 14.34217235382894
IRIDIUM 137             
1 43076U 17083G   25105.59739917  .00000194  00000+0  62129-4 0  9999
2 43076  86.3969 140.9082 0002787 104.5200 255.6305 14.34218164382882
IRIDIUM 141             
1 43077U 17083H   25106.14920229  .00000537  00000+0  18453-3 0  9991
2 43077  86.3962 140.5326 0002257  86.1913 273.9541 14.34219823382968
IRIDIUM 153             
1 43078U 17083J   25106.10138198 -.00000007  00000+0 -94455-5 0  9996
2 43078  86.3919 109.0327 0002100  77.2226 282.9204 14.34217442384061
IRIDIUM 131             
1 43079U 17083K   25106.13651927  .00000001  00000+0 -66212-5 0  9993
2 43079  86.3970 140.6955 0002453  90.5155 269.6322 14.34217535382892
